SL-16 R/B               
1 19120U 88039B   17001.18342003  .00000063  00000-0  53019-4 0  9992
2 19120  71.0158 317.7885 0019507  83.5624 276.7721 14.19163637482698
COSMOS 1953             
1 19210U 88050A   16366.56754062  .00000166  00000-0  95930-5 0  9995
2 19210  82.5165 195.8731 0014765 110.8936 249.3873 15.05095966552629
SL-8 R/B                
1 19257U 88053B   16366.61720425 -.00000069  00000-0 -14267-4 0  9998
2 19257  74.0465 164.5960 0019406  97.3805 332.6622 14.37341145494694
COSMOS 1975             
1 19573U 88093A   16366.48884502  .00000789  00000-0  54938-4 0  9991
2 19573  82.5206 147.7098 0015270 145.8966 214.3245 15.04002121534605
SL-14 R/B               
1 19574U 88093B   16366.96055223  .00000092  00000-0  82927-5 0  9992
2 19574  82.5334 301.4016 0020490 310.9133  94.2236 14.83196430524661
SL-16 R/B               
1 19650U 88102B   17001.19291092  .00000168  00000-0  10996-3 0  9995
2 19650  70.9994   6.2369 0012035  74.8535 285.3919 14.15749337452350
INTERCOSMOS 24          
1 20261U 89080A   16366.80048782 -.00000002  00000-0 -10402-4 0  9990
2 20261  82.5948 118.3987 1204804 122.7424 249.5634 12.55852920244953
SL-14 R/B               
1 20262U 89080C   16366.82131085  .00000027  00000-0  76212-5 0  9999
2 20262  82.5934 163.2888 1236465 278.1321  68.1640 12.48840583240826
DELTA 1 R/B             
1 20323U 89089B   16366.84487593  .00000003  00000-0  10173-4 0  9993
2 20323  97.0866 333.3176 0070448 246.4799 112.8985 14.48169419430501
DELTA 2 R/B(1)          
1 20453U 90008B   16366.80538224  .00002441  00000-0  14137-3 0  9995
2 20453  35.6258 133.3352 0291704 216.7578 141.2806 14.82665654423349
COSMOS 2058             
1 20465U 90010A   16366.69690531  .00000267  00000-0  20577-4 0  9998
2 20465  82.4892  48.8869 0016819 135.0566 225.2022 14.97395631460278
SL-14 R/B               
1 20466U 90010B   17001.04978013  .00000064  00000-0  50981-5 0  9997
2 20466  82.5024 168.9869 0020956 163.5955 196.5942 14.81259674452750
SL-14 R/B               
1 20511U 90018B   16366.90934071  .00000083  00000-0  79076-5 0  9997
2 20511  82.5241 109.8926 0016183 304.4591 151.0457 14.79919209447327
HST                     
1 20580U 90037B   16366.55395834  .00000554  00000-0  23294-4 0  9996
2 20580  28.4710  35.0930 0002804 164.5141  87.3642 15.08634368264944
SL-16 R/B               
1 20625U 90046B   16366.83321857  .00000119  00000-0  86746-4 0  9999
2 20625  70.9994 140.3777 0014504 352.4823   7.6079 14.14613833374170
COSMOS 2084             
1 20663U 90055A   16366.68438611  .00000058  00000-0  22942-4 0  9991
2 20663  62.7930  67.1333 0137331  73.5791 288.0346 14.91443005434822
SL-6 R/B(2)             
1 20666U 90055D   17001.18820640  .00000012  00000-0  19027-4 0  9993
2 20666  62.7844 344.6911 0136498  92.7485 268.9241 14.91802991436264
SL-8 R/B                
1 20775U 90078B   16366.54101896  .00002916  00000-0  14366-3 0  9992
2 20775  82.9274 185.5112 0592936 138.2377 226.5685 14.29873824324802
SL-8 R/B                
1 21088U 91006B   17001.52399228 -.00000023  00000-0 -38520-4 0  9993
2 21088  82.9427 144.1359 0023589  68.4398 359.9654 13.77036217302660
OKEAN-3                 
1 21397U 91039A   17001.17925965  .00000309  00000-0  27583-4 0  9998
2 21397  82.5233 297.0290 0019606  76.7494 283.5911 14.92387154384878
COSMOS 2151             
1 21422U 91042A   17001.18215302  .00000212  00000-0  18491-4 0  9990
2 21422  82.4999  45.3691 0015588 128.5830 231.6788 14.91755842383607
SL-14 R/B               
1 21423U 91042B   16366.76044294  .00000111  00000-0  11627-4 0  9990
2 21423  82.4950 117.8796 0019144  80.0187 280.3185 14.79672351377823
ERS-1                   
1 21574U 91050A   17001.49867464  .00000072  00000-0  38154-4 0  9995
2 21574  98.4404 311.4904 0034190  92.6442 267.8660 14.37548850333645
ARIANE 40 R/B           
1 21610U 91050F   17001.22235902  .00000014  00000-0  18533-4 0  9998
2 21610  98.6300  56.5532 0004252  86.6030 317.5117 14.40777853336070
INTERCOSMOS 25          
1 21819U 91086A   17001.15999879  .00000372  00000-0  64302-4 0  9992
2 21819  82.5527 163.4977 1526381  82.3277 294.7842 12.04416203 92172
SL-14 R/B               
1 21820U 91086B   17001.15994993  .00000134  00000-0  27344-4 0  9997
2 21820  82.5603 216.9894 1576566 263.8731  78.1192 11.93251615 86864
SL-8 R/B                
1 21876U 92008B   16366.74877481  .00000005  00000-0 -11045-4 0  9992
2 21876  82.9266 241.6398 0035458 140.0496 281.1023 13.75597489248369
SL-8 R/B                
1 21938U 92020B   16366.43092265  .00000080  00000-0  67933-4 0  9999
2 21938  82.9309 125.0169 0027973 301.2310 120.6105 13.75258662240239
SL-16 R/B               
1 22220U 92076B   17001.52422788  .00000012  00000-0  30118-4 0  9999
2 22220  71.0008  50.0661 0012559 177.9075 283.8769 14.16410653247177
SL-16 R/B               
1 22285U 92093B   16366.83607412 -.00000306  00000-0 -13328-3 0  9996
2 22285  71.0197 203.3405 0003997 348.6516  11.4516 14.15003813238865
COSMOS 2228             
1 22286U 92094A   16366.56417713  .00000227  00000-0  22214-4 0  9996
2 22286  82.5204 172.1302 0019644 321.2000  38.7805 14.87586119297572
SL-16 R/B               
1 22566U 93016B   16366.58839430 -.00000231  00000-0 -94608-4 0  9991
2 22566  71.0085  58.7260 0009435  14.3363 345.8026 14.14944166227563
COSMOS 2242             
1 22626U 93024A   17001.12118058  .00000215  00000-0  20935-4 0  9992
2 22626  82.5207 199.3039 0018145 318.8953  41.0896 14.87587501281313
SL-16 R/B               
1 22803U 93059B   16366.82279118 -.00000039  00000-0  45343-5 0  9998
2 22803  70.9900 242.1085 0019609 279.3959  80.4947 14.16761549204577
ARIANE 40 R/B           
1 22830U 93061H   16366.67525046 -.00000054  00000-0 -30102-5 0  9993
2 22830  98.8887  12.2069 0011759  59.6974  74.3798 14.31413769214282
COSMOS 2278             
1 23087U 94023A   17001.36145367  .00000062  00000-0  57614-4 0  9997
2 23087  71.0524 347.6458 0007055 118.0239 242.1597 14.13726977170914
SL-16 R/B               
1 23088U 94023B   17001.18590573 -.00000162  00000-0 -59660-4 0  9997
2 23088  71.0012 272.5648 0004507 319.4286  40.6500 14.14653168171921
SL-16 R/B               
1 23343U 94074B   16366.77794447 -.00000014  00000-0  55820-5 0  9991
2 23343  98.1740  36.0016 0005719 245.2224 209.6981 14.76684579192122
SL-16 R/B               
1 23405U 94077B   16365.98190023 -.00000001  00000-0  24210-4 0  9999
2 23405  70.9810 209.0475 0004396 239.7726 120.2962 14.15186858141719
ERS-2                   
1 23560U 95021A   16366.47127292  .00001318  00000-0  65090-4 0  9996
2 23560  98.5384 330.5203 0004398 138.9486 221.2078 15.20071119149906
ARIANE 40+ R/B          
1 23561U 95021B   16366.83593428  .00000035  00000-0  27015-4 0  9995
2 23561  98.7855 358.2345 0007644  40.6190  25.0266 14.37787934137209
SL-16 R/B               
1 23705U 95058B   17001.48658849 -.00000021  00000-0  13726-4 0  9992
2 23705  71.0210  18.7810 0013274 202.4852 157.5691 14.15096983 93603
SL-16 R/B               
1 24298U 96051B   16366.59685878  .00000098  00000-0  79011-4 0  9993
2 24298  70.8468  55.2818 0012411  73.4197 286.8285 14.12468063 48151
ORBVIEW 2 (SEASTAR)     
1 24883U 97037A   16366.30569795  .00000024  00000-0  24419-4 0  9997
2 24883  98.5326 111.3095 0001559 220.8519 139.2549 14.33362751 27857
SL-16 R/B               
1 25400U 98043G   16366.86847453  .00000001  00000-0  18446-4 0  9990
2 25400  98.4674 314.6311 0010955  67.7255 292.5086 14.25400193961234
SL-16 R/B               
1 25407U 98045B   17001.47680430  .00000187  00000-0  11928-3 0  9995
2 25407  71.0114  31.7676 0005549 106.1694 254.0040 14.15755787952588
ISS (ZARYA)             
1 25544U 98067A   17001.57644008  .00001076  00000-0  23677-4 0  9996
2 25544  51.6420 148.8714 0007058  41.5594  63.9277 15.53965746 35846
SL-8 R/B                
1 25723U 99022C   17001.14110197  .00006663  00000-0  11658-3 0  9999
2 25723  48.4185 336.5063 0011107 310.7622  49.2357 15.51725643980532
CZ-4B R/B               
1 25732U 99025C   16366.56224824 -.00000030  00000-0  77978-5 0  9996
2 25732  98.9854   0.3298 0036912 207.1130 260.2131 14.17623233912886
OKEAN-O                 
1 25860U 99039A   16366.54553927  .00000062  00000-0  16537-4 0  9997
2 25860  98.1684 343.3075 0001029  65.5639 294.5678 14.76437128939094
SL-16 R/B               
1 25861U 99039B   16366.85610484  .00000029  00000-0  11420-4 0  9993
2 25861  98.0824 331.2712 0014359 259.8890 130.2228 14.78377952941057
TERRA                   
1 25994U 99068A   17001.26926175  .00000089  00000-0  29716-4 0  9994
2 25994  98.2044  78.6931 0000854 116.7389 243.3879 14.57118706906364
SL-14 R/B               
1 26874U 01032B   16366.78287892  .00046486 -35522-6  11769-3 0  9995
2 26874  82.4539  63.4531 0005495 152.6936 207.4629 15.95306573866988
ENVISAT                 
1 27386U 02009A   17001.51742925  .00000004  00000-0  15048-4 0  9997
2 27386  98.2566  53.5463 0001241  82.3594 277.7738 14.37885323777128
IDEFIX & ARIANE 42P R/B 
1 27422U 02021B   16365.65272970 -.00000043  00000-0 -88955-6 0  9991
2 27422  98.2273   9.2771 0012706  21.5778 338.5938 14.29252970762603
AQUA                    
1 27424U 02022A   16366.82313821  .00000111  00000-0  34618-4 0  9994
2 27424  98.2210 304.4849 0000470  41.2133  39.7223 14.57110157779900
CZ-4B R/B               
1 27432U 02024C   16366.88888131 -.00000016  00000-0  14891-4 0  9998
2 27432  98.9654 333.7038 0051017 144.9186 235.0423 14.14032815755156
MIDORI II (ADEOS-II)    
1 27597U 02056A   16366.92453105  .00000047  00000-0  35985-4 0  9999
2 27597  98.3473 337.7991 0002095  93.9603 266.1818 14.27258324731563
H-2A R/B                
1 27601U 02056E   16366.83116427  .00000037  00000-0  28501-4 0  9993
2 27601  98.3984  74.2423 0073254  72.0154  38.3637 14.31755786733865
